NORAD_CAT_ID,OBJECT_NAME,OBJECT_TYPE,EPOCH,MEAN_MOTION,ECCENTRICITY,INCLINATION,RA_OF_ASC_NODE,ARG_OF_PERICENTER,MEAN_ANOMALY,BSTAR,MEAN_MOTION_DOT,MEAN_MOTION_DDOT,TLE_LINE0,TLE_LINE1,TLE_LINE2,SEMIMAJOR_AXIS,PERIOD,APOGEE,PERIGEE,DECAYED
52278.0,STARLINK-3780,PAYLOAD,2024-06-27 06:19:05,15.08840325,0.0001491,53.2187,14.3236,81.6627,278.4534,9.2325e-05,1.182e-05,0.0,0 STARLINK-3780,1 52278U 22041T   24179.26326107  .00001182  00000-0  92325-4 0  9990,2 52278  53.2187  14.3236 0001491  81.6627 278.4534 15.08840325121920,6917.879,95.438,540.776,538.713,0.0
52278.0,STARLINK-3780,PAYLOAD,2024-06-27 20:37:33,15.08843321,0.000123,53.2169,11.645,91.1559,268.9574,3.7163e-05,3.04e-06,0.0,0 STARLINK-3780,1 52278U 22041T   24179.85941944  .00000304  00000-0  37163-4 0  9991,2 52278  53.2169  11.6450 0001230  91.1559 268.9574 15.08843321120790,6917.87,95.437,540.586,538.884,0.0
52278.0,STARLINK-3780,PAYLOAD,2024-06-28 06:09:51,15.08852328,0.0001366,53.218,9.8619,89.2657,270.8492,0.00016735,2.377e-05,0.0,0 STARLINK-3780,1 52278U 22041T   24180.25685149  .00002377  00000-0  16735-3 0  9992,2 52278  53.2180   9.8619 0001366  89.2657 270.8492 15.08852328122077,6917.843,95.437,540.653,538.763,0.0
52278.0,STARLINK-3780,PAYLOAD,2024-06-28 18:52:57,15.08841272,0.000128,53.2161,7.4847,83.1504,276.9633,0.00019365,2.795e-05,0.0,0 STARLINK-3780,1 52278U 22041T   24180.78677829  .00002795  00000-0  19365-3 0  9992,2 52278  53.2161   7.4847 0001280  83.1504 276.9633 15.08841272122151,6917.877,95.437,540.627,538.856,0.0
52278.0,STARLINK-3780,PAYLOAD,2024-06-29 12:22:12,15.08835885,0.0002255,53.2169,4.212,81.6804,278.4444,5.4486e-05,5.79e-06,0.0,0 STARLINK-3780,1 52278U 22041T   24181.51542223  .00000579  00000-0  54486-4 0  9995,2 52278  53.2169   4.2120 0002255  81.6804 278.4444 15.08835885122269,6917.893,95.438,541.318,538.198,0.0
52278.0,STARLINK-3780,PAYLOAD,2024-06-29 18:43:45,15.08825185,0.0001398,53.2167,3.0225,82.9411,277.174,-9.4453e-05,-1.79e-05,0.0,0 STARLINK-3780,1 52278U 22041T   24181.78038770 -.00001790  00000-0 -94453-4 0  9997,2 52278  53.2167   3.0225 0001398  82.9411 277.1740 15.08825185122307,6917.926,95.438,540.758,538.824,0.0
52278.0,STARLINK-3780,PAYLOAD,2024-06-30 12:12:59,15.08837655,0.0001702,53.2169,359.7477,93.7839,266.3348,0.00014065,1.951e-05,0.0,0 STARLINK-3780,1 52278U 22041T   24182.50902385  .00001951  00000-0  14065-3 0  9997,2 52278  53.2169 359.7477 0001702  93.7839 266.3348 15.08837655121197,6917.888,95.438,540.93,538.575,0.0
52278.0,STARLINK-3780,PAYLOAD,2024-06-30 18:34:32,15.08848259,0.0001344,53.218,358.5627,73.8762,286.2378,0.00098607,0.00015444,0.0,0 STARLINK-3780,1 52278U 22041T   24182.77398610  .00015444  00000-0  98607-3 0  9992,2 52278  53.2180 358.5627 0001344  73.8762 286.2378 15.08848259122456,6917.855,95.437,540.65,538.79,0.0
52278.0,STARLINK-3780,PAYLOAD,2024-07-01 12:03:46,15.08852773,0.0001467,53.2179,355.2912,74.8291,285.2863,0.0004703,7.207e-05,0.0,0 STARLINK-3780,1 52278U 22041T   24183.50262332  .00007207  00000-0  47030-3 0  9997,2 52278  53.2179 355.2912 0001467  74.8291 285.2863 15.08852773122565,6917.841,95.437,540.721,538.691,0.0
52278.0,STARLINK-3780,PAYLOAD,2024-07-01 18:25:19,15.08835247,0.0001023,53.2174,354.1023,78.4419,281.6688,0.0010757,0.00016871,0.0,0 STARLINK-3780,1 52278U 22041T   24183.76758446  .00016871  00000-0  10757-2 0  9993,2 52278  53.2174 354.1023 0001023  78.4419 281.6688 15.08835247122608,6917.895,95.438,540.468,539.052,0.0
52278.0,STARLINK-3780,PAYLOAD,2024-07-02 10:19:10,15.08846048,0.0002338,53.2167,351.1286,75.8334,284.2918,0.00097268,0.00015229,0.0,0 STARLINK-3780,1 52278U 22041T   24184.42998763  .00015229  00000-0  97268-3 0  9994,2 52278  53.2167 351.1286 0002338  75.8334 284.2918 15.08846048121486,6917.862,95.437,541.344,538.11,0.0
52278.0,STARLINK-3780,PAYLOAD,2024-07-02 18:16:06,15.08835877,8.92e-05,53.2167,349.6426,91.2742,268.8352,0.00046715,7.154e-05,0.0,0 STARLINK-3780,1 52278U 22041T   24184.76118693  .00007154  00000-0  46715-3 0  9996,2 52278  53.2167 349.6426 0000892  91.2742 268.8352 15.08835877122751,6917.893,95.438,540.375,539.141,0.0
52278.0,STARLINK-3780,PAYLOAD,2024-07-02 21:26:52,15.08845872,0.0001006,53.2167,349.0468,87.0207,273.09,0.00081148,0.00012652,0.0,0 STARLINK-3780,1 52278U 22041T   24184.89366637  .00012652  00000-0  81148-3 0  9991,2 52278  53.2167 349.0468 0001006  87.0207 273.0900 15.08845872121558,6917.862,95.437,540.423,539.032,0.0
52278.0,STARLINK-3780,PAYLOAD,2024-07-03 18:06:53,15.08850375,0.0001017,53.2166,345.1789,82.0908,278.0199,0.00077155,0.00012016,0.0,0 STARLINK-3780,1 52278U 22041T   24185.75478799  .00012016  00000-0  77155-3 0  9997,2 52278  53.2166 345.1789 0001017  82.0908 278.0199 15.08850375122904,6917.849,95.437,540.417,539.01,0.0
52278.0,STARLINK-3780,PAYLOAD,2024-07-03 21:17:39,15.08853154,0.0001031,53.2166,344.5847,81.3344,278.7765,0.00072413,0.0001126,0.0,0 STARLINK-3780,1 52278U 22041T   24185.88726706  .00011260  00000-0  72413-3 0  9997,2 52278  53.2166 344.5847 0001031  81.3344 278.7765 15.08853154121705,6917.84,95.437,540.418,538.992,0.0
52278.0,STARLINK-3780,PAYLOAD,2024-07-04 10:00:45,15.08849132,0.0002061,53.2149,342.2086,86.0012,274.1216,0.00059414,9.183e-05,0.0,0 STARLINK-3780,1 52278U 22041T   24186.41718943  .00009183  00000-0  59414-3 0  9998,2 52278  53.2149 342.2086 0002061  86.0012 274.1216 15.08849132123001,6917.852,95.437,541.143,538.292,0.0
52278.0,STARLINK-3780,PAYLOAD,2024-07-04 14:46:54,15.08837643,0.0001161,53.2161,341.3153,96.2234,263.889,0.00025801,3.82e-05,0.0,0 STARLINK-3780,1 52278U 22041T   24186.61590954  .00003820  00000-0  25801-3 0  9995,2 52278  53.2161 341.3153 0001161  96.2234 263.8890 15.08837643121813,6917.888,95.438,540.556,538.949,0.0
52278.0,STARLINK-3780,PAYLOAD,2024-07-04 17:57:40,15.08842623,9.98e-05,53.216,340.72,106.4138,253.6964,0.00059937,9.265e-05,0.0,0 STARLINK-3780,1 52278U 22041T   24186.74838890  .00009265  00000-0  59937-3 0  9999,2 52278  53.2160 340.7200 0000998 106.4138 253.6964 15.08842623123053,6917.872,95.437,540.428,539.047,0.0
52278.0,STARLINK-3780,PAYLOAD,2024-07-05 03:29:59,15.08858493,9.11e-05,53.2161,338.9349,93.2998,266.8098,0.0011206,0.000176,0.0,0 STARLINK-3780,1 52278U 22041T   24187.14582599  .00017600  00000-0  11206-2 0  9994,2 52278  53.2161 338.9349 0000911  93.2998 266.8098 15.08858493123112,6917.824,95.436,540.319,539.059,0.0
52278.0,STARLINK-3780,PAYLOAD,2024-07-05 14:37:41,15.08844008,9.22e-05,53.2164,336.8525,95.2469,264.8628,0.00042722,6.519e-05,0.0,0 STARLINK-3780,1 52278U 22041T   24187.60950721  .00006519  00000-0  42722-3 0  9996,2 52278  53.2164 336.8525 0000922  95.2469 264.8628 15.08844008121960,6917.868,95.437,540.371,539.095,0.0
52278.0,STARLINK-3780,PAYLOAD,2024-07-05 17:48:27,15.08849796,9.65e-05,53.2166,336.258,89.4497,270.6606,0.00057326,8.85e-05,0.0,0 STARLINK-3780,1 52278U 22041T   24187.74198630  .00008850  00000-0  57326-3 0  9990,2 52278  53.2166 336.2580 0000965  89.4497 270.6606 15.08849796123209,6917.85,95.437,540.383,539.048,0.0
52278.0,STARLINK-3780,PAYLOAD,2024-07-06 09:42:19,15.08835378,0.0001617,53.216,333.288,75.7626,284.3545,1.647e-06,-2.62e-06,0.0,0 STARLINK-3780,1 52278U 22041T   24188.40438960 -.00000262  00000-0  16470-5 0  9994,2 52278  53.2160 333.2880 0001617  75.7626 284.3545 15.08835378123306,6917.895,95.438,540.878,538.641,0.0
52278.0,STARLINK-3780,PAYLOAD,2024-07-06 14:28:28,15.08832406,0.0001428,53.2165,332.3945,82.0358,278.0796,1.3398e-05,-7.5e-07,0.0,0 STARLINK-3780,1 52278U 22041T   24188.60311080 -.00000075  00000-0  13398-4 0  9996,2 52278  53.2165 332.3945 0001428  82.0358 278.0796 15.08832406122111,6917.904,95.438,540.756,538.781,0.0
52278.0,STARLINK-3780,PAYLOAD,2024-07-06 16:03:51,15.0883981,0.0001397,53.2164,332.0963,93.3848,266.7304,-0.00013104,-2.373e-05,0.0,0 STARLINK-3780,1 52278U 22041T   24188.66934936 -.00002373  00000-0 -13104-3 0  9991,2 52278  53.2164 332.0963 0001397  93.3848 266.7304 15.08839810122127,6917.881,95.438,540.712,538.78,0.0
52278.0,STARLINK-3780,PAYLOAD,2024-07-07 14:19:16,15.08841849,0.0001599,53.2201,327.9334,94.248,265.8695,0.00055514,8.559e-05,0.0,0 STARLINK-3780,1 52278U 22041T   24189.59671542  .00008559  00000-0  55514-3 0  9996,2 52278  53.2201 327.9334 0001599  94.2480 265.8695 15.08841849122263,6917.875,95.437,540.846,538.634,0.0
52278.0,STARLINK-3780,PAYLOAD,2024-07-07 19:05:25,15.08847063,0.0001613,53.2202,327.0407,96.2737,263.8439,0.00053875,8.298e-05,0.0,0 STARLINK-3780,1 52278U 22041T   24189.79543389  .00008298  00000-0  53875-3 0  9993,2 52278  53.2202 327.0407 0001613  96.2737 263.8439 15.08847063123517,6917.859,95.437,540.84,538.608,0.0
52278.0,STARLINK-3780,PAYLOAD,2024-07-08 12:34:39,15.08844118,0.0001517,53.2189,323.7688,111.194,248.9215,0.00022348,3.271e-05,0.0,0 STARLINK-3780,1 52278U 22041T   24190.52407303  .00003271  00000-0  22348-3 0  9998,2 52278  53.2189 323.7688 0001517 111.1940 248.9215 15.08844118123627,6917.868,95.437,540.782,538.683,0.0
52278.0,STARLINK-3780,PAYLOAD,2024-07-08 14:10:03,15.08842606,0.0001493,53.2184,323.4717,111.2852,248.83,0.00020282,2.942e-05,0.0,0 STARLINK-3780,1 52278U 22041T   24190.59031353  .00002942  00000-0  20282-3 0  9992,2 52278  53.2184 323.4717 0001493 111.2852 248.8300 15.08842606122418,6917.872,95.437,540.77,538.705,0.0
52278.0,STARLINK-3780,PAYLOAD,2024-07-08 15:45:26,15.08841477,0.0001225,53.2177,323.1751,92.3478,267.7654,0.00022633,3.316e-05,0.0,0 STARLINK-3780,1 52278U 22041T   24190.65655501  .00003316  00000-0  22633-3 0  9994,2 52278  53.2177 323.1751 0001225  92.3478 267.7654 15.08841477122429,6917.876,95.437,540.588,538.893,0.0
52278.0,STARLINK-3780,PAYLOAD,2024-07-09 12:25:27,15.08830811,0.0001285,53.2182,319.3092,88.6521,271.4618,-0.00011479,-2.114e-05,0.0,0 STARLINK-3780,1 52278U 22041T   24191.51767732 -.00002114  00000-0 -11479-3 0  9993,2 52278  53.2182 319.3092 0001285  88.6521 271.4618 15.08830811123774,6917.908,95.438,540.662,538.885,0.0
